KUIPER-00125            
1 65954U 25228H   25329.40216073  .00048539  00000+0  13824-2 0  9990
2 65954  51.8771 104.0961 0005141 306.3959  53.6553 15.35611353  7756
KUIPER-00126            
1 65955U 25228J   25329.50006943 -.00219058  00000+0 -11754-1 0  9992
2 65955  51.8953 105.1031 0006172 312.6562 188.2294 15.15480522  5502
KUIPER-00127            
1 65956U 25228K   25329.50006943 -.00041963  00000+0 -18011-2 0  9995
2 65956  51.8863 104.2631 0004109 304.5307 303.0269 15.22143260  5630
KUIPER-00128            
1 65957U 25228L   25329.40310814  .00053080  00000+0  15259-2 0  9992
2 65957  51.8785 104.1105 0006753 300.1125  59.9191 15.35270243  7758
KUIPER-00129            
1 65958U 25228M   25329.39917712  .00040439  00000+0  11536-2 0  9999
2 65958  51.8776 104.0839 0004885 282.6789  77.3651 15.35644088  7753
KUIPER-00130            
1 65959U 25228N   25329.40766911  .00035716  00000+0  10395-2 0  9999
2 65959  51.8777 104.1317 0004832 310.1025  49.9537 15.35074452  7759
KUIPER-00134            
1 65960U 25228P   25329.40926008  .00034991  00000+0  10151-2 0  9990
2 65960  51.8777 104.1430 0005639 308.1632  51.8845 15.35181372  7758
KUIPER-00135            
1 65961U 25228Q   25329.40952413  .00044114  00000+0  12821-2 0  9994
2 65961  51.8786 104.1540 0003770 299.3594  60.7015 15.35022068  7757
